H1 CPF 01  gfz 2021 02 23 01  5541 terrasarx 
H2 0702601  6201 31698    2021 02 23 00 59 42 2021 02 28 00 00 42   120 1 1  0 0 0
H9
10 0 59270  29502.000000  0   -5240636.044   2810365.890  -3486056.083
10 0 59270  29622.000000  0   -5502999.710   3169112.619  -2679431.421
10 0 59270  29742.000000  0   -5663593.015   3476307.030  -1825758.122
10 0 59270  29862.000000  0   -5720489.691   3724739.439   -939996.837
10 0 59270  29982.000000  0   -5673701.415   3908209.404    -37703.005
10 0 59270  30102.000000  0   -5525167.021   4021674.621    865252.313
10 0 59270  30222.000000  0   -5278701.491   4061377.029   1752971.234
10 0 59270  30342.000000  0   -4939905.713   4024942.590   2609817.982
10 0 59270  30462.000000  0   -4516041.555   3911453.656   3420701.953
10 0 59270  30582.000000  0   -4015874.394   3721491.356   4171350.864
10 0 59270  30702.000000  0   -3449487.283   3457146.009   4848565.727
10 0 59270  30822.000000  0   -2828072.200   3121997.751   5440454.180
10 0 59270  30942.000000  0   -2163702.539   2721066.468   5936637.552
10 0 59270  31062.000000  0   -1469093.320   2260733.233   6328428.875
10 0 59270  31182.000000  0    -757353.252   1748634.427   6608978.324
10 0 59270  31302.000000  0     -41736.795   1193532.253   6773385.474
10 0 59270  31422.000000  0     664602.334    605163.086   6818780.253
10 0 59270  31542.000000  0    1348852.222     -5933.348   6744369.366
10 0 59270  31662.000000  0    1998773.907   -628601.877   6551449.742
10 0 59270  31782.000000  0    2602919.745  -1251275.050   6243387.944
10 0 59270  31902.000000  0    3150836.055  -1862187.034   5825565.967
10 0 59270  32022.000000  0    3633247.204  -2449596.433   5305292.806
10 0 59270  32142.000000  0    4042216.652  -3002012.767   4691682.316
10 0 59270  32262.000000  0    4371282.603  -3508423.855   3995499.328
10 0 59270  32382.000000  0    4615565.539  -3958519.197   3228974.604
10 0 59270  32502.000000  0    4771845.497  -4342904.131   2405591.135
10 0 59270  32622.000000  0    4838606.051  -4653298.953   1539844.252
10 0 59270  32742.000000  0    4816043.129  -4882718.407    646981.614
10 0 59270  32862.000000  0    4706038.918  -5025627.690   -257272.303
10 0 59270  32982.000000  0    4512101.688  -5078069.708  -1157001.224
10 0 59270  33102.000000  0    4239273.194  -5037760.748  -2036386.572
10 0 59270  33222.000000  0    3894004.631  -4904151.844  -2879993.187
10 0 59270  33342.000000  0    3484005.928  -4678454.662  -3673045.662
10 0 59270  33462.000000  0    3018072.309  -4363632.236  -4401688.883
10 0 59270  33582.000000  0    2505893.042  -3964354.933  -5053229.030
10 0 59270  33702.000000  0    1957846.469  -3486922.486  -5616348.344
10 0 59270  33822.000000  0    1384788.687  -2939157.439  -6081291.446
10 0 59270  33942.000000  0     797838.841  -2330272.210  -6440024.282
10 0 59270  34062.000000  0     208164.449  -1670710.240  -6686362.729
10 0 59270  34182.000000  0    -373227.892   -971965.059  -6816068.425
10 0 59270  34302.000000  0    -935692.594   -246381.542  -6826913.026
10 0 59270  34422.000000  0   -1469135.108    493057.675  -6718711.778
10 0 59270  34542.000000  0   -1964189.018   1232958.382  -6493325.784
10 0 59270  34662.000000  0   -2412376.537   1959751.437  -6154633.412
10 0 59270  34782.000000  0   -2806251.883   2659935.598  -5708471.354
10 0 59270  34902.000000  0   -3139525.520   3320325.349  -5162544.885
10 0 59270  35022.000000  0   -3407167.513   3928299.062  -4526306.774
10 0 59270  35142.000000  0   -3605487.665   4472043.043  -3810803.896
10 0 59270  35262.000000  0   -3732188.697   4940785.292  -3028493.427
10 0 59270  35382.000000  0   -3786392.331   5325014.252  -2193033.176
10 0 59270  35502.000000  0   -3768638.964   5616679.202  -1319047.343
10 0 59270  35622.000000  0   -3680858.306   5809367.012   -421869.743
10 0 59270  35742.000000  0   -3526310.744   5898447.012    482730.109
10 0 59270  35862.000000  0   -3309503.049   5881182.475   1378831.098
10 0 59270  35982.000000  0   -3036076.364   5756804.803   2250651.275
10 0 59270  36102.000000  0   -2712670.096   5526545.914   3082836.059
10 0 59270  36222.000000  0   -2346767.154   5193629.159   3860735.507
10 0 59270  36342.000000  0   -1946524.616   4763221.265   4570666.675
10 0 59270  36462.000000  0   -1520593.896   4242346.049   5200156.351
10 0 59270  36582.000000  0   -1077933.988   3639762.087   5738160.081
10 0 59270  36702.000000  0    -627623.348   2965806.819   6175252.066
10 0 59270  36822.000000  0    -178674.536   2232211.840   6503784.572
10 0 59270  36942.000000  0     260144.747   1451894.317   6718015.435
10 0 59270  37062.000000  0     680482.046    638726.312   6814203.267
10 0 59270  37182.000000  0    1074557.998   -192712.443   6790667.566
10 0 59270  37302.000000  0    1435309.285  -1027394.774   6647817.157
10 0 59270  37422.000000  0    1756515.072  -1850117.331   6388143.917
10 0 59270  37542.000000  0    2032904.725  -2645776.992   6016182.701
10 0 59270  37662.000000  0    2260245.354  -3399649.652   5538437.306
10 0 59270  37782.000000  0    2435407.532  -4097665.625   4963271.943
10 0 59270  37902.000000  0    2556407.636  -4726676.262   4300770.533
10 0 59270  38022.000000  0    2622427.808  -5274708.422   3562564.817
10 0 59270  38142.000000  0    2633811.068  -5731200.480   2761632.159
10 0 59270  38262.000000  0    2592031.273  -6087214.791   1912066.782
10 0 59270  38382.000000  0    2499638.951  -6335618.867   1028827.716
10 0 59270  38502.000000  0    2360185.011  -6471233.149    127470.984
10 0 59270  38622.000000  0    2178123.745  -6490942.875   -776132.055
10 0 59270  38742.000000  0    1958696.298  -6393767.110  -1666084.942
10 0 59270  38862.000000  0    1707797.210  -6180883.549  -2526754.007
10 0 59270  38982.000000  0    1431828.954  -5855611.005  -3343050.675
10 0 59270  39102.000000  0    1137548.540  -5423345.458  -4100699.003
10 0 59270  39222.000000  0     831911.441  -4891459.066  -4786484.335
10 0 59270  39342.000000  0     521914.605  -4269162.319  -5388479.312
10 0 59270  39462.000000  0     214443.047  -3567333.809  -5896243.764
10 0 59270  39582.000000  0     -83876.836  -2798321.131  -6300995.687
10 0 59270  39702.000000  0    -366814.108  -1975718.270  -6595751.602
10 0 59270  39822.000000  0    -628658.124  -1114123.822  -6775435.805
10 0 59270  39942.000000  0    -864328.988   -228884.092  -6836959.116
10 0 59270  40062.000000  0   -1069472.371    664175.919  -6779265.487
10 0 59270  40182.000000  0   -1240537.775   1549027.992  -6603347.382
10 0 59270  40302.000000  0   -1374838.619   2409721.070  -6312230.288
10 0 59270  40422.000000  0   -1470593.705   3230662.033  -5910927.519
10 0 59270  40542.000000  0   -1526950.057   3996895.533  -5406363.430
10 0 59270  40662.000000  0   -1543985.724   4694376.131  -4807265.021
10 0 59270  40782.000000  0   -1522693.398   5310230.234  -4124022.469
10 0 59270  40902.000000  0   -1464944.123   5833000.965  -3368518.052
10 0 59270  41022.000000  0   -1373431.280   6252870.194  -2553926.916
10 0 59270  41142.000000  0   -1251596.470   6561854.534  -1694492.609
10 0 59270  41262.000000  0   -1103538.243   6753968.985   -805278.361
10 0 59270  41382.000000  0    -933905.925   6825353.300     98098.770
10 0 59270  41502.000000  0    -747780.435   6774359.254    999748.175
10 0 59270  41622.000000  0    -550545.389   6601592.712   1883795.454
10 0 59270  41742.000000  0    -347751.967   6309907.132   2734672.051
10 0 59270  41862.000000  0    -144981.304   5904352.243   3537396.167
10 0 59270  41982.000000  0      52291.963   5392081.310   4277841.410
10 0 59270  42102.000000  0     238832.046   4782218.327   4942992.118
10 0 59270  42222.000000  0     409768.033   4085680.337   5521172.781
10 0 59270  42342.000000  0     560709.043   3314974.049   6002247.328
10 0 59270  42462.000000  0     687846.387   2483963.386   6377793.993
10 0 59270  42582.000000  0     788040.267   1607613.481   6641246.410
10 0 59270  42702.000000  0     858890.364    701717.103   6788002.613
10 0 59270  42822.000000  0     898788.663   -217391.154   6815499.546
10 0 59270  42942.000000  0     906953.731  -1133128.056   6723255.853
10 0 59270  43062.000000  0     883445.749  -2028960.902   6512880.568
10 0 59270  43182.000000  0     829162.087  -2888705.862   6188047.386
10 0 59270  43302.000000  0     745813.261  -3696822.559   5754433.950
10 0 59270  43422.000000  0     635879.897  -4438696.411   5219626.009
10 0 59270  43542.000000  0     502552.811  -5100906.077   4592991.375
10 0 59270  43662.000000  0     349656.021  -5671474.007   3885523.002
10 0 59270  43782.000000  0     181553.219  -6140093.761   3109649.689
10 0 59270  43902.000000  0       3040.433  -6498326.789   2279018.256
10 0 59270  44022.000000  0    -180772.912  -6739763.343   1408251.172
10 0 59270  44142.000000  0    -364591.264  -6860146.303    512685.529
10 0 59270  44262.000000  0    -543066.189  -6857452.726   -391906.153
10 0 59270  44382.000000  0    -710931.253  -6731927.892  -1289603.810
10 0 59270  44502.000000  0    -863134.654  -6486073.112  -2164628.551
10 0 59270  44622.000000  0    -994966.957  -6124589.700  -3001626.516
10 0 59270  44742.000000  0   -1102180.983  -5654279.897  -3785943.375
10 0 59270  44862.000000  0   -1181100.520  -5083906.632  -4503882.873
10 0 59270  44982.000000  0   -1228715.039  -4424017.095  -5142942.964
10 0 59270  45102.000000  0   -1242758.862  -3686736.575  -5692026.758
10 0 59270  45222.000000  0   -1221772.983  -2885536.991  -6141626.210
10 0 59270  45342.000000  0   -1165148.619  -2034984.747  -6483976.232
10 0 59270  45462.000000  0   -1073152.074  -1150473.551  -6713177.027
10 0 59270  45582.000000  0    -946931.062   -247947.792  -6825285.403
10 0 59270  45702.000000  0    -788501.841    656380.351  -6818374.880
10 0 59270  45822.000000  0    -600717.037   1546314.720  -6692564.360
10 0 59270  45942.000000  0    -387215.921   2405957.590  -6450016.223
99
